<?xml version="1.0" encoding="UTF-8"?>
<gpx version="1.1" creator="Timeline-inferred" xmlns="http://www.topografix.com/GPX/1/1">
  <trk><name>2024-02-09 inferred cycling (from phone location): Melipeuco to Pucón</name>
    <trkseg>
      <trkpt lat="-38.8520658" lon="-71.6888177"><time>2024-02-09T16:23:25Z</time></trkpt>
      <trkpt lat="-38.8520597" lon="-71.6888341"><time>2024-02-09T16:24:00Z</time></trkpt>
      <trkpt lat="-38.8572063" lon="-71.7105780"><time>2024-02-09T16:31:00Z</time></trkpt>
    </trkseg>
    <trkseg>
      <trkpt lat="-38.8601797" lon="-71.8202495"><time>2024-02-09T17:01:00Z</time></trkpt>
      <trkpt lat="-38.8619875" lon="-71.8282605"><time>2024-02-09T17:03:00Z</time></trkpt>
      <trkpt lat="-38.8705099" lon="-71.8437285"><time>2024-02-09T17:09:00Z</time></trkpt>
      <trkpt lat="-38.8829367" lon="-71.8823357"><time>2024-02-09T17:21:00Z</time></trkpt>
    </trkseg>
    <trkseg>
      <trkpt lat="-38.9035723" lon="-71.9222339"><time>2024-02-09T17:42:00Z</time></trkpt>
      <trkpt lat="-38.9012755" lon="-71.9205424"><time>2024-02-09T17:48:00Z</time></trkpt>
    </trkseg>
    <trkseg>
      <trkpt lat="-38.9042235" lon="-71.9221006"><time>2024-02-09T19:40:00Z</time></trkpt>
      <trkpt lat="-38.9223953" lon="-71.9762561"><time>2024-02-09T19:56:00Z</time></trkpt>
      <trkpt lat="-38.9284881" lon="-72.0084858"><time>2024-02-09T20:04:00Z</time></trkpt>
      <trkpt lat="-38.9318771" lon="-72.0262642"><time>2024-02-09T20:09:00Z</time></trkpt>
      <trkpt lat="-38.9309897" lon="-72.0349594"><time>2024-02-09T20:19:00Z</time></trkpt>
      <trkpt lat="-38.9287248" lon="-72.0586884"><time>2024-02-09T20:25:00Z</time></trkpt>
      <trkpt lat="-38.9255975" lon="-72.0780544"><time>2024-02-09T20:30:00Z</time></trkpt>
      <trkpt lat="-38.9234701" lon="-72.0862154"><time>2024-02-09T20:31:00Z</time></trkpt>
      <trkpt lat="-38.9248920" lon="-72.0911620"><time>2024-02-09T20:32:00Z</time></trkpt>
      <trkpt lat="-38.9282661" lon="-72.1107200"><time>2024-02-09T20:35:00Z</time></trkpt>
      <trkpt lat="-38.9261567" lon="-72.1177108"><time>2024-02-09T20:37:00Z</time></trkpt>
      <trkpt lat="-38.9421170" lon="-72.1529499"><time>2024-02-09T20:50:00Z</time></trkpt>
    </trkseg>
    <trkseg>
      <trkpt lat="-38.9851650" lon="-72.2438368"><time>2024-02-09T21:24:00Z</time></trkpt>
      <trkpt lat="-38.9889161" lon="-72.2478970"><time>2024-02-09T21:26:00Z</time></trkpt>
      <trkpt lat="-38.9952296" lon="-72.2463161"><time>2024-02-09T21:29:00Z</time></trkpt>
      <trkpt lat="-39.0061309" lon="-72.2516396"><time>2024-02-09T21:44:00Z</time></trkpt>
      <trkpt lat="-39.0536193" lon="-72.2219196"><time>2024-02-09T22:04:00Z</time></trkpt>
      <trkpt lat="-39.0555650" lon="-72.2191913"><time>2024-02-09T22:06:00Z</time></trkpt>
      <trkpt lat="-39.0714164" lon="-72.2155693"><time>2024-02-09T22:26:00Z</time></trkpt>
    </trkseg>
    <trkseg>
      <trkpt lat="-39.1277251" lon="-72.2219948"><time>2024-02-09T23:32:00Z</time></trkpt>
      <trkpt lat="-39.1367298" lon="-72.2212538"><time>2024-02-09T23:39:00Z</time></trkpt>
      <trkpt lat="-39.1407571" lon="-72.2197263"><time>2024-02-09T23:41:00Z</time></trkpt>
      <trkpt lat="-39.1476510" lon="-72.2203643"><time>2024-02-09T23:45:00Z</time></trkpt>
      <trkpt lat="-39.1496773" lon="-72.2194097"><time>2024-02-09T23:46:00Z</time></trkpt>
      <trkpt lat="-39.1539963" lon="-72.2152646"><time>2024-02-09T23:48:00Z</time></trkpt>
      <trkpt lat="-39.1563684" lon="-72.2149434"><time>2024-02-09T23:49:00Z</time></trkpt>
      <trkpt lat="-39.1586260" lon="-72.2137764"><time>2024-02-09T23:50:00Z</time></trkpt>
      <trkpt lat="-39.1599066" lon="-72.2108722"><time>2024-02-09T23:51:00Z</time></trkpt>
      <trkpt lat="-39.1639347" lon="-72.2103680"><time>2024-02-09T23:53:00Z</time></trkpt>
      <trkpt lat="-39.1657467" lon="-72.2106961"><time>2024-02-09T23:56:00Z</time></trkpt>
      <trkpt lat="-39.1695572" lon="-72.2033366"><time>2024-02-10T00:14:00Z</time></trkpt>
      <trkpt lat="-39.1757944" lon="-72.1925155"><time>2024-02-10T00:18:34Z</time></trkpt>
      <trkpt lat="-39.1755636" lon="-72.1925688"><time>2024-02-10T00:18:34Z</time></trkpt>
      <trkpt lat="-39.1757944" lon="-72.1925155"><time>2024-02-10T00:19:00Z</time></trkpt>
      <trkpt lat="-39.1760017" lon="-72.1926036"><time>2024-02-10T00:28:19Z</time></trkpt>
      <trkpt lat="-39.1791311" lon="-72.1919404"><time>2024-02-10T00:30:00Z</time></trkpt>
      <trkpt lat="-39.2218421" lon="-72.2005078"><time>2024-02-10T00:44:00Z</time></trkpt>
      <trkpt lat="-39.2556100" lon="-72.2174722"><time>2024-02-10T00:56:00Z</time></trkpt>
      <trkpt lat="-39.2762100" lon="-72.2310122"><time>2024-02-10T01:06:00Z</time></trkpt>
      <trkpt lat="-39.2804583" lon="-72.2250491"><time>2024-02-10T01:11:00Z</time></trkpt>
      <trkpt lat="-39.2815659" lon="-72.2232829"><time>2024-02-10T01:12:59Z</time></trkpt>
      <trkpt lat="-39.2813231" lon="-72.2226718"><time>2024-02-10T01:12:59Z</time></trkpt>
      <trkpt lat="-39.2813231" lon="-72.2226718"><time>2024-02-10T01:13:00Z</time></trkpt>
      <trkpt lat="-39.2832815" lon="-72.2239797"><time>2024-02-10T01:29:00Z</time></trkpt>
      <trkpt lat="-39.2815098" lon="-72.2231534"><time>2024-02-10T01:47:00Z</time></trkpt>
      <trkpt lat="-39.2827340" lon="-72.2226670"><time>2024-02-10T01:47:18Z</time></trkpt>
      <trkpt lat="-39.2859606" lon="-72.2210187"><time>2024-02-10T01:54:00Z</time></trkpt>
      <trkpt lat="-39.2823093" lon="-72.2225789"><time>2024-02-10T01:56:00Z</time></trkpt>
    </trkseg>
    <trkseg>
      <trkpt lat="-39.2814490" lon="-72.2231178"><time>2024-02-11T15:21:00Z</time></trkpt>
      <trkpt lat="-39.2834821" lon="-72.2220013"><time>2024-02-11T15:21:14Z</time></trkpt>
      <trkpt lat="-39.2834821" lon="-72.2220013"><time>2024-02-11T15:29:00Z</time></trkpt>
      <trkpt lat="-39.2870785" lon="-72.2207712"><time>2024-02-11T15:31:00Z</time></trkpt>
      <trkpt lat="-39.2914257" lon="-72.2167683"><time>2024-02-11T15:33:00Z</time></trkpt>
      <trkpt lat="-39.2920321" lon="-72.2140110"><time>2024-02-11T15:35:00Z</time></trkpt>
      <trkpt lat="-39.2938799" lon="-72.2113949"><time>2024-02-11T15:37:00Z</time></trkpt>
      <trkpt lat="-39.2920321" lon="-72.2140110"><time>2024-02-11T15:39:00Z</time></trkpt>
      <trkpt lat="-39.2938127" lon="-72.1719292"><time>2024-02-11T15:47:00Z</time></trkpt>
      <trkpt lat="-39.2987751" lon="-72.1327176"><time>2024-02-11T15:57:00Z</time></trkpt>
      <trkpt lat="-39.3010186" lon="-72.1218538"><time>2024-02-11T15:59:00Z</time></trkpt>
      <trkpt lat="-39.2973644" lon="-72.1055468"><time>2024-02-11T16:03:00Z</time></trkpt>
      <trkpt lat="-39.3038330" lon="-72.0811809"><time>2024-02-11T16:09:00Z</time></trkpt>
      <trkpt lat="-39.3018596" lon="-72.0714208"><time>2024-02-11T16:11:00Z</time></trkpt>
      <trkpt lat="-39.3056613" lon="-72.0640652"><time>2024-02-11T16:13:00Z</time></trkpt>
      <trkpt lat="-39.3037756" lon="-72.0433206"><time>2024-02-11T16:19:00Z</time></trkpt>
      <trkpt lat="-39.3006813" lon="-72.0234313"><time>2024-02-11T16:23:00Z</time></trkpt>
      <trkpt lat="-39.2891827" lon="-71.9984291"><time>2024-02-11T16:31:00Z</time></trkpt>
      <trkpt lat="-39.2794424" lon="-71.9774666"><time>2024-02-11T16:37:00Z</time></trkpt>
      <trkpt lat="-39.2777801" lon="-71.9747728"><time>2024-02-11T16:42:00Z</time></trkpt>
      <trkpt lat="-39.2756209" lon="-71.9769955"><time>2024-02-11T16:49:00Z</time></trkpt>
      <trkpt lat="-39.2755079" lon="-71.9778783"><time>2024-02-11T16:51:00Z</time></trkpt>
      <trkpt lat="-39.2755260" lon="-71.9767570"><time>2024-02-11T16:51:06Z</time></trkpt>
      <trkpt lat="-39.2774908" lon="-71.9746757"><time>2024-02-11T16:51:06Z</time></trkpt>
    </trkseg>
  </trk>
</gpx>
