<?xml version="1.0" encoding="UTF-8"?>
<gpx version="1.1" creator="Timeline-inferred" xmlns="http://www.topografix.com/GPX/1/1">
  <trk><name>2024-03-17 inferred cycling (from phone location)</name>
    <trkseg>
      <trkpt lat="-33.4252083" lon="-70.6128201"><time>2024-03-17T02:16:00Z</time></trkpt>
      <trkpt lat="-33.4247389" lon="-70.6118525"><time>2024-03-17T02:31:47Z</time></trkpt>
      <trkpt lat="-33.447672" lon="-70.6041619"><time>2024-03-17T02:40:53Z</time></trkpt>
      <trkpt lat="-33.4479681" lon="-70.6036739"><time>2024-03-17T02:40:53Z</time></trkpt>
      <trkpt lat="-33.447672" lon="-70.6041619"><time>2024-03-17T02:41:00Z</time></trkpt>
      <trkpt lat="-33.4468931" lon="-70.6041635"><time>2024-03-17T02:50:00Z</time></trkpt>
      <trkpt lat="-33.4468931" lon="-70.6041635"><time>2024-03-17T02:50:03Z</time></trkpt>
      <trkpt lat="-33.4377418" lon="-70.603707"><time>2024-03-17T02:52:00Z</time></trkpt>
      <trkpt lat="-33.4354678" lon="-70.6045738"><time>2024-03-17T02:53:00Z</time></trkpt>
      <trkpt lat="-33.4342623" lon="-70.5997394"><time>2024-03-17T02:55:00Z</time></trkpt>
      <trkpt lat="-33.4311712" lon="-70.5864473"><time>2024-03-17T02:58:00Z</time></trkpt>
      <trkpt lat="-33.4301271" lon="-70.5841969"><time>2024-03-17T02:59:34Z</time></trkpt>
      <trkpt lat="-33.4298564" lon="-70.5842638"><time>2024-03-17T02:59:34Z</time></trkpt>
      <trkpt lat="-33.4301271" lon="-70.5841969"><time>2024-03-17T03:00:00Z</time></trkpt>
    </trkseg>
    <trkseg>
      <trkpt lat="-33.4303718" lon="-70.5848004"><time>2024-03-17T19:48:00Z</time></trkpt>
      <trkpt lat="-33.4303718" lon="-70.5848004"><time>2024-03-17T19:48:11Z</time></trkpt>
      <trkpt lat="-33.4320138" lon="-70.5854202"><time>2024-03-17T19:52:00Z</time></trkpt>
      <trkpt lat="-33.4324109" lon="-70.5847533"><time>2024-03-17T19:52:10Z</time></trkpt>
      <trkpt lat="-33.4320138" lon="-70.5854202"><time>2024-03-17T19:52:10Z</time></trkpt>
      <trkpt lat="-33.4346118" lon="-70.5861726"><time>2024-03-17T19:56:00Z</time></trkpt>
      <trkpt lat="-33.432569" lon="-70.5845804"><time>2024-03-17T20:12:31Z</time></trkpt>
      <trkpt lat="-33.432569" lon="-70.5845804"><time>2024-03-17T20:13:00Z</time></trkpt>
      <trkpt lat="-33.4261684" lon="-70.5773032"><time>2024-03-17T20:14:00Z</time></trkpt>
      <trkpt lat="-33.4307293" lon="-70.5743643"><time>2024-03-17T20:15:00Z</time></trkpt>
      <trkpt lat="-33.438339" lon="-70.5730401"><time>2024-03-17T20:18:00Z</time></trkpt>
      <trkpt lat="-33.4519308" lon="-70.5592064"><time>2024-03-17T20:22:00Z</time></trkpt>
      <trkpt lat="-33.4625012" lon="-70.5520857"><time>2024-03-17T20:24:00Z</time></trkpt>
      <trkpt lat="-33.4606308" lon="-70.5575423"><time>2024-03-17T20:24:00Z</time></trkpt>
      <trkpt lat="-33.4655641" lon="-70.5315893"><time>2024-03-17T20:28:00Z</time></trkpt>
      <trkpt lat="-33.4762126" lon="-70.5134481"><time>2024-03-17T20:37:00Z</time></trkpt>
      <trkpt lat="-33.4754978" lon="-70.5131923"><time>2024-03-17T20:38:00Z</time></trkpt>
      <trkpt lat="-33.4764377" lon="-70.5116725"><time>2024-03-17T20:38:10Z</time></trkpt>
      <trkpt lat="-33.4762126" lon="-70.5134481"><time>2024-03-17T20:38:10Z</time></trkpt>
      <trkpt lat="-33.477499" lon="-70.5162672"><time>2024-03-17T20:58:00Z</time></trkpt>
      <trkpt lat="-33.4763841" lon="-70.5116757"><time>2024-03-17T21:02:00Z</time></trkpt>
      <trkpt lat="-33.4763814" lon="-70.5116738"><time>2024-03-17T21:04:47Z</time></trkpt>
      <trkpt lat="-33.4763814" lon="-70.5116738"><time>2024-03-17T21:05:00Z</time></trkpt>
      <trkpt lat="-33.4752681" lon="-70.5130033"><time>2024-03-17T21:16:11Z</time></trkpt>
      <trkpt lat="-33.4659803" lon="-70.5307304"><time>2024-03-17T21:25:00Z</time></trkpt>
      <trkpt lat="-33.4594397" lon="-70.5296854"><time>2024-03-17T21:26:00Z</time></trkpt>
      <trkpt lat="-33.450739" lon="-70.5282008"><time>2024-03-17T21:29:00Z</time></trkpt>
      <trkpt lat="-33.4353036" lon="-70.5372356"><time>2024-03-17T21:33:00Z</time></trkpt>
      <trkpt lat="-33.4157223" lon="-70.539068"><time>2024-03-17T21:38:00Z</time></trkpt>
      <trkpt lat="-33.4096509" lon="-70.5420391"><time>2024-03-17T21:39:00Z</time></trkpt>
      <trkpt lat="-33.4082265" lon="-70.5451488"><time>2024-03-17T21:41:00Z</time></trkpt>
      <trkpt lat="-33.4079" lon="-70.54511"><time>2024-03-17T21:41:19Z</time></trkpt>
      <trkpt lat="-33.4082265" lon="-70.5451488"><time>2024-03-17T21:41:19Z</time></trkpt>
    </trkseg>
  </trk>
</gpx>
